[{"OBJECT_NAME":"OBJECT B","OBJECT_ID":"2022-023B","EPOCH":"2026-03-09T22:47:53.401632","MEAN_MOTION":15.18262382,"ECCENTRICITY":0.00937159,"INCLINATION":63.476,"RA_OF_ASC_NODE":246.6999,"ARG_OF_PERICENTER":346.6129,"MEAN_ANOMALY":13.2499,"EPHEMERIS_TYPE":0,"CLASSIFICATION_TYPE":"U","NORAD_CAT_ID":51947,"ELEMENT_SET_NO":999,"REV_AT_EPOCH":22265,"BSTAR":0.00086643699,"MEAN_MOTION_DOT":0.00019848,"MEAN_MOTION_DDOT":0},{"OBJECT_NAME":"STARLINK-31588","OBJECT_ID":"2024-057R","EPOCH":"2026-03-09T08:48:26.667648","MEAN_MOTION":15.27580923,"ECCENTRICITY":5.571e-5,"INCLINATION":42.9984,"RA_OF_ASC_NODE":188.5548,"ARG_OF_PERICENTER":270.0598,"MEAN_ANOMALY":90.019,"EPHEMERIS_TYPE":0,"CLASSIFICATION_TYPE":"U","NORAD_CAT_ID":59335,"ELEMENT_SET_NO":999,"REV_AT_EPOCH":10979,"BSTAR":-3.8829324e-5,"MEAN_MOTION_DOT":-1.33e-5,"MEAN_MOTION_DDOT":0}]
